NORAD_CAT_ID,OBJECT_NAME,OBJECT_TYPE,EPOCH,MEAN_MOTION,ECCENTRICITY,INCLINATION,RA_OF_ASC_NODE,ARG_OF_PERICENTER,MEAN_ANOMALY,BSTAR,MEAN_MOTION_DOT,MEAN_MOTION_DDOT,TLE_LINE0,TLE_LINE1,TLE_LINE2,SEMIMAJOR_AXIS,PERIOD,APOGEE,PERIGEE,DECAYED
55756.0,STARLINK-5614,PAYLOAD,2023-09-08 12:56:26,14.98331977,0.0002999,70.0015,26.648,269.8217,90.2599,5.5014e-06,-2.7e-07,0.0,0 STARLINK-5614,1 55756U 23028R   23251.53919911 -.00000027  00000-0  55014-5 0  9994,2 55756  70.0015  26.6480 0002999 269.8217  90.2599 14.98331977 29268,6950.187,96.107,574.136,569.967,0.0
55756.0,STARLINK-5614,PAYLOAD,2023-09-08 19:20:58,14.98334777,0.0003108,70.0021,25.9755,272.2463,87.8341,1.1984e-05,5e-07,0.0,0 STARLINK-5614,1 55756U 23028R   23251.80623682  .00000050  00000-0  11984-4 0  9993,2 55756  70.0021  25.9755 0003108 272.2463  87.8341 14.98334777 29309,6950.178,96.107,574.203,569.883,0.0
55756.0,STARLINK-5614,PAYLOAD,2023-09-09 09:46:12,14.98323926,0.0003244,70.0019,24.4608,274.0974,85.9814,-1.7633e-05,-3.03e-06,0.0,0 STARLINK-5614,1 55756U 23028R   23252.40708437 -.00000303  00000-0 -17633-4 0  9992,2 55756  70.0019  24.4608 0003244 274.0974  85.9814 14.98323926 29392,6950.212,96.107,574.331,569.822,0.0
55756.0,STARLINK-5614,PAYLOAD,2023-09-09 12:58:28,14.98324598,0.0003193,70.0018,24.1241,273.7175,86.3619,-8.4209e-06,-1.93e-06,0.0,0 STARLINK-5614,1 55756U 23028R   23252.54060419 -.00000193  00000-0 -84209-5 0  9999,2 55756  70.0018  24.1241 0003193 273.7175  86.3619 14.98324598 29410,6950.21,96.107,574.294,569.855,0.0
55756.0,STARLINK-5614,PAYLOAD,2023-09-09 17:46:52,14.98331413,0.0002758,70.0021,23.6198,265.4426,94.6418,-8.0071e-06,-1.88e-06,0.0,0 STARLINK-5614,1 55756U 23028R   23252.74088047 -.00000188  00000-0 -80071-5 0  9995,2 55756  70.0021  23.6198 0002758 265.4426  94.6418 14.98331413 29448,6950.189,96.107,573.97,570.137,0.0
55756.0,STARLINK-5614,PAYLOAD,2023-09-10 13:00:28,14.98332368,0.0003015,70.0023,21.6005,267.4566,92.6248,1.054e-05,3.3e-07,0.0,0 STARLINK-5614,1 55756U 23028R   23253.54199836  .00000033  00000-0  10540-4 0  9993,2 55756  70.0023  21.6005 0003015 267.4566  92.6248 14.98332368 29561,6950.186,96.107,574.146,569.955,0.0
55756.0,STARLINK-5614,PAYLOAD,2023-09-10 17:48:52,14.98333227,0.0003054,70.0023,21.0956,268.0571,92.0238,2.0357e-05,1.5e-06,0.0,0 STARLINK-5614,1 55756U 23028R   23253.74227735  .00000150  00000-0  20357-4 0  9992,2 55756  70.0023  21.0956 0003054 268.0571  92.0238 14.98333227 29597,6950.183,96.107,574.17,569.925,0.0
55756.0,STARLINK-5614,PAYLOAD,2023-09-11 09:50:14,14.98278036,0.0003234,70.0024,19.4129,267.1876,92.8913,0.00091501,0.00010827,0.0,0 STARLINK-5614,1 55756U 23028R   23254.40989266  .00010827  00000-0  91501-3 0  9990,2 55756  70.0024  19.4129 0003234 267.1876  92.8913 14.98278036 29694,6950.354,96.11,574.466,569.971,0.0
55756.0,STARLINK-5614,PAYLOAD,2023-09-11 13:02:29,14.98328813,0.0003006,70.0024,19.0763,266.6694,93.4122,1.8305e-05,1.25e-06,0.0,0 STARLINK-5614,1 55756U 23028R   23254.54339997  .00000125  00000-0  18305-4 0  9997,2 55756  70.0024  19.0763 0003006 266.6694  93.4122 14.98328813 29714,6950.197,96.107,574.151,569.972,0.0
55756.0,STARLINK-5614,PAYLOAD,2023-09-11 17:50:53,14.98331167,0.0003042,70.0023,18.571,268.0651,92.016,4.1103e-05,3.98e-06,0.0,0 STARLINK-5614,1 55756U 23028R   23254.74367789  .00000398  00000-0  41103-4 0  9993,2 55756  70.0023  18.5710 0003042 268.0651  92.0160 14.98331167 29744,6950.189,96.107,574.169,569.94,0.0
55756.0,STARLINK-5614,PAYLOAD,2023-09-12 13:04:30,14.98331666,0.0003232,70.0018,16.5505,271.1936,88.8853,2.3675e-05,1.89e-06,0.0,0 STARLINK-5614,1 55756U 23028R   23255.54479645  .00000189  00000-0  23675-4 0  9999,2 55756  70.0018  16.5505 0003232 271.1936  88.8853 14.98331666 29869,6950.188,96.107,574.299,569.806,0.0
55756.0,STARLINK-5614,PAYLOAD,2023-09-12 17:52:53,14.98341426,0.0003021,70.0019,16.0451,268.1275,91.9538,0.00010848,1.202e-05,0.0,0 STARLINK-5614,1 55756U 23028R   23255.74506699  .00001202  00000-0  10848-3 0  9995,2 55756  70.0019  16.0451 0003021 268.1275  91.9538 14.98341426 29896,6950.158,96.106,574.122,569.923,0.0
55756.0,STARLINK-5614,PAYLOAD,2023-09-13 09:54:14,14.98332132,0.0002823,70.003,14.3639,260.5167,99.5673,5.1077e-05,5.17e-06,0.0,0 STARLINK-5614,1 55756U 23028R   23256.41267178  .00000517  00000-0  51077-4 0  9994,2 55756  70.0030  14.3639 0002823 260.5167  99.5673 14.98332132 29992,6950.186,96.107,574.013,570.089,0.0
55756.0,STARLINK-5614,PAYLOAD,2023-09-13 14:42:38,14.98332126,0.0003048,70.0027,13.8588,267.4963,92.5847,8.4105e-05,9.11e-06,0.0,0 STARLINK-5614,1 55756U 23028R   23256.61295036  .00000911  00000-0  84105-4 0  9996,2 55756  70.0027  13.8588 0003048 267.4963  92.5847 14.98332126 30020,6950.186,96.107,574.17,569.933,0.0
55756.0,STARLINK-5614,PAYLOAD,2023-09-13 17:54:54,14.9833548,0.0002804,70.0031,13.5225,260.0503,100.034,5.4876e-05,5.62e-06,0.0,0 STARLINK-5614,1 55756U 23028R   23256.74646859  .00000562  00000-0  54876-4 0  9997,2 55756  70.0031  13.5225 0002804 260.0503 100.0340 14.98335480 30049,6950.176,96.107,573.99,570.092,0.0
55756.0,STARLINK-5614,PAYLOAD,2023-09-14 09:56:16,14.98321171,0.0003218,70.0019,11.8374,275.9042,84.175,-0.00012793,-1.619e-05,0.0,0 STARLINK-5614,1 55756U 23028R   23257.41408381 -.00001619  00000-0 -12793-3 0  9995,2 55756  70.0019  11.8374 0003218 275.9042  84.1750 14.98321171 30144,6950.22,96.108,574.322,569.849,0.0
55756.0,STARLINK-5614,PAYLOAD,2023-09-14 13:08:33,14.98316142,0.0003456,70.001,11.5025,271.6761,88.4002,-0.00011198,-1.428e-05,0.0,0 STARLINK-5614,1 55756U 23028R   23257.54760671 -.00001428  00000-0 -11198-3 0  9998,2 55756  70.0010  11.5025 0003456 271.6761  88.4002 14.98316142 30161,6950.236,96.108,574.503,569.699,0.0
55756.0,STARLINK-5614,PAYLOAD,2023-09-14 17:56:57,14.98318806,0.0003557,70.0012,10.9979,272.6564,87.4188,-0.00018861,-2.342e-05,0.0,0 STARLINK-5614,1 55756U 23028R   23257.74788845 -.00002342  00000-0 -18861-3 0  9993,2 55756  70.0012  10.9979 0003557 272.6564  87.4188 14.98318806 30194,6950.228,96.108,574.565,569.62,0.0
55756.0,STARLINK-5614,PAYLOAD,2023-09-15 09:58:17,14.9832608,0.0003583,70.001,9.3131,275.5247,84.5503,-4.2493e-05,-6e-06,0.0,0 STARLINK-5614,1 55756U 23028R   23258.41548356 -.00000600  00000-0 -42493-4 0  9993,2 55756  70.0010   9.3131 0003583 275.5247  84.5503 14.98326080 30296,6950.205,96.107,574.56,569.58,0.0
55756.0,STARLINK-5614,PAYLOAD,2023-09-15 13:10:33,14.98324962,0.0002951,70.0026,8.9775,267.2857,92.7965,-2.2183e-05,-3.58e-06,0.0,0 STARLINK-5614,1 55756U 23028R   23258.54900416 -.00000358  00000-0 -22183-4 0  9990,2 55756  70.0026   8.9775 0002951 267.2857  92.7965 14.98324962 30318,6950.208,96.107,574.124,570.022,0.0
55756.0,STARLINK-5614,PAYLOAD,2023-09-15 17:58:57,14.98328384,0.0002741,70.0027,8.4726,258.9211,101.164,2.3578e-05,1.88e-06,0.0,0 STARLINK-5614,1 55756U 23028R   23258.74928093  .00000188  00000-0  23578-4 0  9991,2 55756  70.0027   8.4726 0002741 258.9211 101.1640 14.98328384 30348,6950.198,96.107,573.968,570.158,0.0
55756.0,STARLINK-5614,PAYLOAD,2023-09-16 13:12:34,14.98324067,0.0003057,70.0016,6.4522,267.0972,92.9837,0.00022523,2.595e-05,0.0,0 STARLINK-5614,1 55756U 23028R   23259.55039909  .00002595  00000-0  22523-3 0  9992,2 55756  70.0016   6.4522 0003057 267.0972  92.9837 14.98324067 30466,6950.211,96.107,574.201,569.952,0.0
55756.0,STARLINK-5614,PAYLOAD,2023-09-16 18:00:58,14.98327916,0.0003057,70.0017,5.9473,267.3494,92.7315,0.00024791,2.866e-05,0.0,0 STARLINK-5614,1 55756U 23028R   23259.75067656  .00002866  00000-0  24791-3 0  9994,2 55756  70.0017   5.9473 0003057 267.3494  92.7315 14.98327916 30496,6950.199,96.107,574.189,569.94,0.0
55756.0,STARLINK-5614,PAYLOAD,2023-09-17 13:14:35,14.98330785,0.0003254,70.0009,3.9272,272.5795,87.4992,3.488e-05,3.23e-06,0.0,0 STARLINK-5614,1 55756U 23028R   23260.55180040  .00000323  00000-0  34880-4 0  9994,2 55756  70.0009   3.9272 0003254 272.5795  87.4992 14.98330785 30617,6950.19,96.107,574.317,569.794,0.0
55756.0,STARLINK-5614,PAYLOAD,2023-09-18 10:04:20,14.98331959,0.0003171,70.0011,1.7393,270.8685,89.2111,-4.2737e-05,-6.03e-06,0.0,0 STARLINK-5614,1 55756U 23028R   23261.41967958 -.00000603  00000-0 -42737-4 0  9994,2 55756  70.0011   1.7393 0003171 270.8685  89.2111 14.98331959 30748,6950.187,96.107,574.256,569.848,0.0
55756.0,STARLINK-5614,PAYLOAD,2023-09-18 13:16:36,14.98332364,0.0003029,70.0014,1.4035,263.9052,96.1762,-4.3517e-05,-6.12e-06,0.0,0 STARLINK-5614,1 55756U 23028R   23261.55319884 -.00000612  00000-0 -43517-4 0  9995,2 55756  70.0014   1.4035 0003029 263.9052  96.1762 14.98332364 30766,6950.186,96.107,574.156,569.945,0.0
55756.0,STARLINK-5614,PAYLOAD,2023-09-18 16:28:52,14.98333506,0.0002917,70.0016,1.0661,271.9524,88.1301,2.9274e-05,2.56e-06,0.0,0 STARLINK-5614,1 55756U 23028R   23261.68671685  .00000256  00000-0  29274-4 0  9995,2 55756  70.0016   1.0661 0002917 271.9524  88.1301 14.98333506 30788,6950.182,96.107,574.074,570.02,0.0
55756.0,STARLINK-5614,PAYLOAD,2023-09-19 10:06:20,14.98334645,0.0003457,70.0016,359.2152,274.2637,85.8127,7.6268e-05,8.17e-06,0.0,0 STARLINK-5614,1 55756U 23028R   23262.42107101  .00000817  00000-0  76268-4 0  9993,2 55756  70.0016 359.2152 0003457 274.2637  85.8127 14.98334645 30899,6950.179,96.107,574.446,569.641,0.0
55756.0,STARLINK-5614,PAYLOAD,2023-09-19 16:30:51,14.98343892,0.0002987,70.0014,358.5411,272.1372,87.9445,0.00016346,1.859e-05,0.0,0 STARLINK-5614,1 55756U 23028R   23262.68810147  .00001859  00000-0  16346-3 0  9999,2 55756  70.0014 358.5411 0002987 272.1372  87.9445 14.98343892 30932,6950.15,96.106,574.091,569.939,0.0
55756.0,STARLINK-5614,PAYLOAD,2023-09-20 10:08:22,14.98318766,0.0003629,70.0001,356.6894,271.5815,88.4928,-0.00013121,-1.658e-05,0.0,0 STARLINK-5614,1 55756U 23028R   23263.42248517 -.00001658  00000-0 -13121-3 0  9995,2 55756  70.0001 356.6894 0003629 271.5815  88.4928 14.98318766 31048,6950.228,96.108,574.615,569.57,0.0
